ORBCOMM FM24            
1 25478U 98053D   25107.65717729  .00002006  00000+0  70458-3 0  9994
2 25478  45.0063 196.0615 0003747 257.9271 102.1158 14.37926236388738
ORBCOMM FM25            
1 25479U 98053E   25108.18329377  .00001724  00000+0  61232-3 0  9998
2 25479  45.0053 191.8310 0005578 281.7665  78.2558 14.37902178389107
ORBCOMM FM26            
1 25480U 98053F   25108.43409274  .00001472  00000+0  53931-3 0  9990
2 25480  45.0060 186.6761 0006668 304.8970  55.1251 14.36987846389159
ORBCOMM FM27            
1 25481U 98053G   25107.68578542  .00002316  00000+0  80629-3 0  9994
2 25481  45.0039 194.4133 0002473 244.4436 115.6157 14.37924952388967
ORBCOMM FM28            
1 25482U 98053H   25108.49595204  .00001510  00000+0  53958-3 0  9999
2 25482  45.0040 128.1634 0005280 330.8262  29.2291 14.38132525389931
ORBCOMM FM31            
1 25981U 99065B   25107.84568360  .00001925  00000+0  68943-3 0  9998
2 25981  45.0239   8.8094 0003703  75.7881 284.3378 14.37097966326297
ORBCOMM FM32            
1 25982U 99065C   25107.92141472  .00001775  00000+0  65178-3 0  9999
2 25982  45.0166  24.6204 0005704  75.5644 284.5837 14.36131776325933
