<?xml version="1.0" encoding="UTF-8"?>
<ndm xmlns:xsi="http://www.w3.org/2001/XMLSchema-instance" xsi:noNamespaceSchemaLocation="https://sanaregistry.org/r/ndmxml_unqualified/ndmxml-2.0.0-master-2.0.xsd">
<omm id="CCSDS_OMM_VERS" version="2.0">
<header><CREATION_DATE/><ORIGINATOR/></header><body><segment><metadata><OBJECT_NAME>ORBCOMM FM24</OBJECT_NAME><OBJECT_ID>1998-053D</OBJECT_ID><CENTER_NAME>EARTH</CENTER_NAME><REF_FRAME>TEME</REF_FRAME><TIME_SYSTEM>UTC</TIME_SYSTEM><MEAN_ELEMENT_THEORY>SGP4</MEAN_ELEMENT_THEORY></metadata><data><meanElements><EPOCH>2025-04-17T15:46:20.117856</EPOCH><MEAN_MOTION>14.37926236</MEAN_MOTION><ECCENTRICITY>.0003747</ECCENTRICITY><INCLINATION>45.0063</INCLINATION><RA_OF_ASC_NODE>196.0615</RA_OF_ASC_NODE><ARG_OF_PERICENTER>257.9271</ARG_OF_PERICENTER><MEAN_ANOMALY>102.1158</MEAN_ANOMALY></meanElements><tleParameters><EPHEMERIS_TYPE>0</EPHEMERIS_TYPE><CLASSIFICATION_TYPE>U</CLASSIFICATION_TYPE><NORAD_CAT_ID>25478</NORAD_CAT_ID><ELEMENT_SET_NO>999</ELEMENT_SET_NO><REV_AT_EPOCH>38873</REV_AT_EPOCH><BSTAR>.70458E-3</BSTAR><MEAN_MOTION_DOT>.2006E-4</MEAN_MOTION_DOT><MEAN_MOTION_DDOT>0</MEAN_MOTION_DDOT></tleParameters></data></segment></body></omm>
<omm id="CCSDS_OMM_VERS" version="2.0">
<header><CREATION_DATE/><ORIGINATOR/></header><body><segment><metadata><OBJECT_NAME>ORBCOMM FM25</OBJECT_NAME><OBJECT_ID>1998-053E</OBJECT_ID><CENTER_NAME>EARTH</CENTER_NAME><REF_FRAME>TEME</REF_FRAME><TIME_SYSTEM>UTC</TIME_SYSTEM><MEAN_ELEMENT_THEORY>SGP4</MEAN_ELEMENT_THEORY></metadata><data><meanElements><EPOCH>2025-04-18T04:23:56.581728</EPOCH><MEAN_MOTION>14.37902178</MEAN_MOTION><ECCENTRICITY>.0005578</ECCENTRICITY><INCLINATION>45.0053</INCLINATION><RA_OF_ASC_NODE>191.8310</RA_OF_ASC_NODE><ARG_OF_PERICENTER>281.7665</ARG_OF_PERICENTER><MEAN_ANOMALY>78.2558</MEAN_ANOMALY></meanElements><tleParameters><EPHEMERIS_TYPE>0</EPHEMERIS_TYPE><CLASSIFICATION_TYPE>U</CLASSIFICATION_TYPE><NORAD_CAT_ID>25479</NORAD_CAT_ID><ELEMENT_SET_NO>999</ELEMENT_SET_NO><REV_AT_EPOCH>38910</REV_AT_EPOCH><BSTAR>.61232E-3</BSTAR><MEAN_MOTION_DOT>.1724E-4</MEAN_MOTION_DOT><MEAN_MOTION_DDOT>0</MEAN_MOTION_DDOT></tleParameters></data></segment></body></omm>
<omm id="CCSDS_OMM_VERS" version="2.0">
<header><CREATION_DATE/><ORIGINATOR/></header><body><segment><metadata><OBJECT_NAME>ORBCOMM FM26</OBJECT_NAME><OBJECT_ID>1998-053F</OBJECT_ID><CENTER_NAME>EARTH</CENTER_NAME><REF_FRAME>TEME</REF_FRAME><TIME_SYSTEM>UTC</TIME_SYSTEM><MEAN_ELEMENT_THEORY>SGP4</MEAN_ELEMENT_THEORY></metadata><data><meanElements><EPOCH>2025-04-18T10:25:05.612736</EPOCH><MEAN_MOTION>14.36987846</MEAN_MOTION><ECCENTRICITY>.0006668</ECCENTRICITY><INCLINATION>45.0060</INCLINATION><RA_OF_ASC_NODE>186.6761</RA_OF_ASC_NODE><ARG_OF_PERICENTER>304.8970</ARG_OF_PERICENTER><MEAN_ANOMALY>55.1251</MEAN_ANOMALY></meanElements><tleParameters><EPHEMERIS_TYPE>0</EPHEMERIS_TYPE><CLASSIFICATION_TYPE>U</CLASSIFICATION_TYPE><NORAD_CAT_ID>25480</NORAD_CAT_ID><ELEMENT_SET_NO>999</ELEMENT_SET_NO><REV_AT_EPOCH>38915</REV_AT_EPOCH><BSTAR>.53931E-3</BSTAR><MEAN_MOTION_DOT>.1472E-4</MEAN_MOTION_DOT><MEAN_MOTION_DDOT>0</MEAN_MOTION_DDOT></tleParameters></data></segment></body></omm>
<omm id="CCSDS_OMM_VERS" version="2.0">
<header><CREATION_DATE/><ORIGINATOR/></header><body><segment><metadata><OBJECT_NAME>ORBCOMM FM27</OBJECT_NAME><OBJECT_ID>1998-053G</OBJECT_ID><CENTER_NAME>EARTH</CENTER_NAME><REF_FRAME>TEME</REF_FRAME><TIME_SYSTEM>UTC</TIME_SYSTEM><MEAN_ELEMENT_THEORY>SGP4</MEAN_ELEMENT_THEORY></metadata><data><meanElements><EPOCH>2025-04-17T16:27:31.860288</EPOCH><MEAN_MOTION>14.37924952</MEAN_MOTION><ECCENTRICITY>.0002473</ECCENTRICITY><INCLINATION>45.0039</INCLINATION><RA_OF_ASC_NODE>194.4133</RA_OF_ASC_NODE><ARG_OF_PERICENTER>244.4436</ARG_OF_PERICENTER><MEAN_ANOMALY>115.6157</MEAN_ANOMALY></meanElements><tleParameters><EPHEMERIS_TYPE>0</EPHEMERIS_TYPE><CLASSIFICATION_TYPE>U</CLASSIFICATION_TYPE><NORAD_CAT_ID>25481</NORAD_CAT_ID><ELEMENT_SET_NO>999</ELEMENT_SET_NO><REV_AT_EPOCH>38896</REV_AT_EPOCH><BSTAR>.80629E-3</BSTAR><MEAN_MOTION_DOT>.2316E-4</MEAN_MOTION_DOT><MEAN_MOTION_DDOT>0</MEAN_MOTION_DDOT></tleParameters></data></segment></body></omm>
<omm id="CCSDS_OMM_VERS" version="2.0">
<header><CREATION_DATE/><ORIGINATOR/></header><body><segment><metadata><OBJECT_NAME>ORBCOMM FM28</OBJECT_NAME><OBJECT_ID>1998-053H</OBJECT_ID><CENTER_NAME>EARTH</CENTER_NAME><REF_FRAME>TEME</REF_FRAME><TIME_SYSTEM>UTC</TIME_SYSTEM><MEAN_ELEMENT_THEORY>SGP4</MEAN_ELEMENT_THEORY></metadata><data><meanElements><EPOCH>2025-04-18T11:54:10.256256</EPOCH><MEAN_MOTION>14.38132525</MEAN_MOTION><ECCENTRICITY>.000528</ECCENTRICITY><INCLINATION>45.0040</INCLINATION><RA_OF_ASC_NODE>128.1634</RA_OF_ASC_NODE><ARG_OF_PERICENTER>330.8262</ARG_OF_PERICENTER><MEAN_ANOMALY>29.2291</MEAN_ANOMALY></meanElements><tleParameters><EPHEMERIS_TYPE>0</EPHEMERIS_TYPE><CLASSIFICATION_TYPE>U</CLASSIFICATION_TYPE><NORAD_CAT_ID>25482</NORAD_CAT_ID><ELEMENT_SET_NO>999</ELEMENT_SET_NO><REV_AT_EPOCH>38993</REV_AT_EPOCH><BSTAR>.53958E-3</BSTAR><MEAN_MOTION_DOT>.151E-4</MEAN_MOTION_DOT><MEAN_MOTION_DDOT>0</MEAN_MOTION_DDOT></tleParameters></data></segment></body></omm>
<omm id="CCSDS_OMM_VERS" version="2.0">
<header><CREATION_DATE/><ORIGINATOR/></header><body><segment><metadata><OBJECT_NAME>ORBCOMM FM31</OBJECT_NAME><OBJECT_ID>1999-065B</OBJECT_ID><CENTER_NAME>EARTH</CENTER_NAME><REF_FRAME>TEME</REF_FRAME><TIME_SYSTEM>UTC</TIME_SYSTEM><MEAN_ELEMENT_THEORY>SGP4</MEAN_ELEMENT_THEORY></metadata><data><meanElements><EPOCH>2025-04-17T20:17:47.063040</EPOCH><MEAN_MOTION>14.37097966</MEAN_MOTION><ECCENTRICITY>.0003703</ECCENTRICITY><INCLINATION>45.0239</INCLINATION><RA_OF_ASC_NODE>8.8094</RA_OF_ASC_NODE><ARG_OF_PERICENTER>75.7881</ARG_OF_PERICENTER><MEAN_ANOMALY>284.3378</MEAN_ANOMALY></meanElements><tleParameters><EPHEMERIS_TYPE>0</EPHEMERIS_TYPE><CLASSIFICATION_TYPE>U</CLASSIFICATION_TYPE><NORAD_CAT_ID>25981</NORAD_CAT_ID><ELEMENT_SET_NO>999</ELEMENT_SET_NO><REV_AT_EPOCH>32629</REV_AT_EPOCH><BSTAR>.68943E-3</BSTAR><MEAN_MOTION_DOT>.1925E-4</MEAN_MOTION_DOT><MEAN_MOTION_DDOT>0</MEAN_MOTION_DDOT></tleParameters></data></segment></body></omm>
<omm id="CCSDS_OMM_VERS" version="2.0">
<header><CREATION_DATE/><ORIGINATOR/></header><body><segment><metadata><OBJECT_NAME>ORBCOMM FM32</OBJECT_NAME><OBJECT_ID>1999-065C</OBJECT_ID><CENTER_NAME>EARTH</CENTER_NAME><REF_FRAME>TEME</REF_FRAME><TIME_SYSTEM>UTC</TIME_SYSTEM><MEAN_ELEMENT_THEORY>SGP4</MEAN_ELEMENT_THEORY></metadata><data><meanElements><EPOCH>2025-04-17T22:06:50.231808</EPOCH><MEAN_MOTION>14.36131776</MEAN_MOTION><ECCENTRICITY>.0005704</ECCENTRICITY><INCLINATION>45.0166</INCLINATION><RA_OF_ASC_NODE>24.6204</RA_OF_ASC_NODE><ARG_OF_PERICENTER>75.5644</ARG_OF_PERICENTER><MEAN_ANOMALY>284.5837</MEAN_ANOMALY></meanElements><tleParameters><EPHEMERIS_TYPE>0</EPHEMERIS_TYPE><CLASSIFICATION_TYPE>U</CLASSIFICATION_TYPE><NORAD_CAT_ID>25982</NORAD_CAT_ID><ELEMENT_SET_NO>999</ELEMENT_SET_NO><REV_AT_EPOCH>32593</REV_AT_EPOCH><BSTAR>.65178E-3</BSTAR><MEAN_MOTION_DOT>.1775E-4</MEAN_MOTION_DOT><MEAN_MOTION_DDOT>0</MEAN_MOTION_DDOT></tleParameters></data></segment></body></omm>

</ndm>
